STARLINK-1320
1 45572U 20025AT  26061.15820483  .00078523  00000+0  71155-3 0  9994
2 45572  53.0503  22.8564 0007908  30.1078 330.0391 15.67344368325625
STARLINK-1654
1 46326U 20062B   26061.13489457  .00112936  00000+0  10358-2 0  9997
2 46326  53.0460  10.8856 0003860 318.1552  41.9168 15.66916471303732
STARLINK-1993
1 47588U 21009AS  26061.16267432  .00122976  00000+0  11410-2 0  9995
2 47588  53.0480  16.3959 0002160 311.5253  48.5577 15.66595475280218
STARLINK-1727
1 46335U 20062L   26061.16668981  .00119117  00000+0  11078-2 0  9999
2 46335  53.0470  13.2733 0004547 308.0820   4.0071 15.66543146  5875
STARLINK-1815
1 46713U 20073AV  26060.73389326  .00107211  00000+0  10039-2 0  9994
2 46713  53.0453 241.4518 0001016 297.3856  62.7056 15.66433522296433
STARLINK-1624
1 46130U 20057P   26061.00204435  .00116512  00000+0  11130-2 0  9994
2 46130  53.0439 270.1717 0002274 261.4225  98.6532 15.65895768307296
STARLINK-1958
1 47559U 21009M   26061.11290758  .00099257  00000+0  95506-3 0  9999
2 47559  53.0472 358.7623 0005824 329.6543  30.4134 15.65771644280458
